{"type": "FeatureCollection", "features": [ {"type": "Feature", "properties": {"norad_id": 37292, "name": "COSMOS 2251 DEB", "group": "cosmos-2251-debris", "lat": 16.251827783688142, "lon": -143.49931581757372, "alt_km": 955.7517118103233, "timestamp": "2025-12-17T15:50:10.179629+00:00", "meta": {"OBJECT_NAME": "COSMOS 2251 DEB", "OBJECT_ID": "1993-036BJG", "EPOCH": "2025-12-02T14:04:30.366912", "MEAN_MOTION": 14.03226454, "ECCENTRICITY": 0.02102512, "INCLINATION": 74.129, "RA_OF_ASC_NODE": 67.3453, "ARG_OF_PERICENTER": 73.1105, "MEAN_ANOMALY": 289.2966, "EPHEMERIS_TYPE": 0, "CLASSIFICATION_TYPE": "U", "NORAD_CAT_ID": 37292, "ELEMENT_SET_NO": 999, "REV_AT_EPOCH": 59706, "BSTAR": 0.0022453288, "MEAN_MOTION_DOT": 4.236e-05, "MEAN_MOTION_DDOT": 0}, "tle": {"line1": "1 37292U 93036BJG 25336.58646258  .00004236  00000+0  22453-2 0  9999", "line2": "2 37292  74.1290  67.3453 0210251  73.1105 289.2966 14.03226454597064"}}, "geometry": {"type": "Point", "coordinates": [-143.49931581757372, 16.251827783688142]}}, {"type": "Feature", "properties": {"norad_id": 37295, "name": "COSMOS 2251 DEB", "group": "cosmos-2251-debris", "lat": 73.94024817139697, "lon": 7.0696092386034515, "alt_km": 637.8980609292275, "timestamp": "2025-12-17T15:50:10.179639+00:00", "meta": {"OBJECT_NAME": "COSMOS 2251 DEB", "OBJECT_ID": "1993-036BJK", "EPOCH": "2025-12-16T11:34:00.861888", "MEAN_MOTION": 14.65261877, "ECCENTRICITY": 0.00438077, "INCLINATION": 74.0067, "RA_OF_ASC_NODE": 274.4091, "ARG_OF_PERICENTER": 92.4908, "MEAN_ANOMALY": 268.1277, "EPHEMERIS_TYPE": 0, "CLASSIFICATION_TYPE": "U", "NORAD_CAT_ID": 37295, "ELEMENT_SET_NO": 999, "REV_AT_EPOCH": 82359, "BSTAR": 0.00040407143, "MEAN_MOTION_DOT": 2.178e-05, "MEAN_MOTION_DDOT": 0}, "tle": {"line1": "1 37295U 93036BJK 25350.48195442  .00002178  00000+0  40407-3 0  9994", "line2": "2 37295  74.0067 274.4091 0043807  92.4908 268.1277 14.65261877823590"}}, "geometry": {"type": "Point", "coordinates": [7.0696092386034515, 73.94024817139697]}}, {"type": "Feature", "properties": {"norad_id": 37305, "name": "COSMOS 2251 DEB", "group": "cosmos-2251-debris", "lat": 70.0381974987818, "lon": -25.78613503339822, "alt_km": 798.1946397567754, "timestamp": "2025-12-17T15:50:10.179650+00:00", "meta": {"OBJECT_NAME": "COSMOS 2251 DEB", "OBJECT_ID": "1993-036BJV", "EPOCH": "2025-12-13T12:50:04.816608", "MEAN_MOTION": 14.36140847, "ECCENTRICITY": 0.00500253, "INCLINATION": 73.8697, "RA_OF_ASC_NODE": 289.0409, "ARG_OF_PERICENTER": 249.3262, "MEAN_ANOMALY": 110.2523, "EPHEMERIS_TYPE": 0, "CLASSIFICATION_TYPE": "U", "NORAD_CAT_ID": 37305, "ELEMENT_SET_NO": 999, "REV_AT_EPOCH": 66878, "BSTAR": 0.00092453159, "MEAN_MOTION_DOT": 2.706e-05, "MEAN_MOTION_DDOT": 0}, "tle": {"line1": "1 37305U 93036BJV 25347.53477797  .00002706  00000+0  92453-3 0  9999", "line2": "2 37305  73.8697 289.0409 0050025 249.3262 110.2523 14.36140847668789"}}, "geometry": {"type": "Point", "coordinates": [-25.78613503339822, 70.0381974987818]}}, {"type": "Feature", "properties": {"norad_id": 37312, "name": "COSMOS 2251 DEB", "group": "cosmos-2251-debris", "lat": -58.66742930406282, "lon": 166.93978559827949, "alt_km": 731.9524571049515, "timestamp": "2025-12-17T15:50:10.179660+00:00", "meta": {"OBJECT_NAME": "COSMOS 2251 DEB", "OBJECT_ID": "1993-036BKC", "EPOCH": "2025-12-15T07:40:32.314080", "MEAN_MOTION": 14.46134941, "ECCENTRICITY": 0.00183905, "INCLINATION": 74.0308, "RA_OF_ASC_NODE": 199.364, "ARG_OF_PERICENTER": 302.4306, "MEAN_ANOMALY": 57.5073, "EPHEMERIS_TYPE": 0, "CLASSIFICATION_TYPE": "U", "NORAD_CAT_ID": 37312, "ELEMENT_SET_NO": 999, "REV_AT_EPOCH": 86201, "BSTAR": 0.00037323494, "MEAN_MOTION_DOT": 1.309e-05, "MEAN_MOTION_DDOT": 0}, "tle": {"line1": "1 37312U 93036BKC 25349.31981845  .00001309  00000+0  37323-3 0  9992", "line2": "2 37312  74.0308 199.3640 0018390 302.4306  57.5073 14.46134941862012"}}, "geometry": {"type": "Point", "coordinates": [166.93978559827949, -58.66742930406282]}}, {"type": "Feature", "properties": {"norad_id": 37316, "name": "COSMOS 2251 DEB", "group": "cosmos-2251-debris", "lat": -73.63100059471888, "lon": -66.18145544544443, "alt_km": 609.8758350176113, "timestamp": "2025-12-17T15:50:10.179681+00:00", "meta": {"OBJECT_NAME": "COSMOS 2251 DEB", "OBJECT_ID": "1993-036BKG", "EPOCH": "2025-12-17T08:11:29.901120", "MEAN_MOTION": 14.9468312, "ECCENTRICITY": 0.00293349, "INCLINATION": 74.0196, "RA_OF_ASC_NODE": 11.7863, "ARG_OF_PERICENTER": 78.0104, "MEAN_ANOMALY": 282.4365, "EPHEMERIS_TYPE": 0, "CLASSIFICATION_TYPE": "U", "NORAD_CAT_ID": 37316, "ELEMENT_SET_NO": 999, "REV_AT_EPOCH": 86212, "BSTAR": 0.0015745613, "MEAN_MOTION_DOT": 0.00017232, "MEAN_MOTION_DDOT": 0}, "tle": {"line1": "1 37316U 93036BKG 25351.34131830  .00017232  00000+0  15746-2 0  9999", "line2": "2 37316  74.0196  11.7863 0029334  78.0104 282.4365 14.94683120862123"}}, "geometry": {"type": "Point", "coordinates": [-66.18145544544443, -73.63100059471888]}}, {"type": "Feature", "properties": {"norad_id": 37320, "name": "COSMOS 2251 DEB", "group": "cosmos-2251-debris", "lat": 48.5760327446801, "lon": 9.576601340929928, "alt_km": 660.1861553918243, "timestamp": "2025-12-17T15:50:10.179692+00:00", "meta": {"OBJECT_NAME": "COSMOS 2251 DEB", "OBJECT_ID": "1993-036BKL", "EPOCH": "2025-12-17T07:08:08.438496", "MEAN_MOTION": 14.78834519, "ECCENTRICITY": 0.00469449, "INCLINATION": 74.0452, "RA_OF_ASC_NODE": 209.2073, "ARG_OF_PERICENTER": 295.2696, "MEAN_ANOMALY": 64.3618, "EPHEMERIS_TYPE": 0, "CLASSIFICATION_TYPE": "U", "NORAD_CAT_ID": 37320, "ELEMENT_SET_NO": 999, "REV_AT_EPOCH": 66214, "BSTAR": 0.00060761772, "MEAN_MOTION_DOT": 4.522e-05, "MEAN_MOTION_DDOT": 0}, "tle": {"line1": "1 37320U 93036BKL 25351.29731989  .00004522  00000+0  60762-3 0  9996", "line2": "2 37320  74.0452 209.2073 0046944 295.2696  64.3618 14.78834519662145"}}, "geometry": {"type": "Point", "coordinates": [9.576601340929928, 48.5760327446801]}}, {"type": "Feature", "properties": {"norad_id": 37326, "name": "COSMOS 2251 DEB", "group": "cosmos-2251-debris", "lat": 28.23998826225962, "lon": -25.87673198815035, "alt_km": 668.8330113442235, "timestamp": "2025-12-17T15:50:10.179703+00:00", "meta": {"OBJECT_NAME": "COSMOS 2251 DEB", "OBJECT_ID": "1993-036BKS", "EPOCH": "2025-12-17T07:29:18.425184", "MEAN_MOTION": 14.61598459, "ECCENTRICITY": 0.00547488, "INCLINATION": 74.0255, "RA_OF_ASC_NODE": 325.9386, "ARG_OF_PERICENTER": 93.5817, "MEAN_ANOMALY": 267.1613, "EPHEMERIS_TYPE": 0, "CLASSIFICATION_TYPE": "U", "NORAD_CAT_ID": 37326, "ELEMENT_SET_NO": 999, "REV_AT_EPOCH": 85550, "BSTAR": 0.0004141421, "MEAN_MOTION_DOT": 2.072e-05, "MEAN_MOTION_DDOT": 0}, "tle": {"line1": "1 37326U 93036BKS 25351.31201881  .00002072  00000+0  41414-3 0  9999", "line2": "2 37326  74.0255 325.9386 0054748  93.5817 267.1613 14.61598459855504"}}, "geometry": {"type": "Point", "coordinates": [-25.87673198815035, 28.23998826225962]}}, {"type": "Feature", "properties": {"norad_id": 37330, "name": "COSMOS 2251 DEB", "group": "cosmos-2251-debris", "lat": -9.462909368942173, "lon": -77.04177369906522, "alt_km": 730.3163164824227, "timestamp": "2025-12-17T15:50:10.179713+00:00", "meta": {"OBJECT_NAME": "COSMOS 2251 DEB", "OBJECT_ID": "1993-036BKW", "EPOCH": "2025-12-15T04:39:38.606112", "MEAN_MOTION": 14.59547518, "ECCENTRICITY": 0.00569299, "INCLINATION": 74.0181, "RA_OF_ASC_NODE": 290.4011, "ARG_OF_PERICENTER": 138.2054, "MEAN_ANOMALY": 222.3481, "EPHEMERIS_TYPE": 0, "CLASSIFICATION_TYPE": "U", "NORAD_CAT_ID": 37330, "ELEMENT_SET_NO": 999, "REV_AT_EPOCH": 86404, "BSTAR": 0.00024598877, "MEAN_MOTION_DOT": 1.165e-05, "MEAN_MOTION_DDOT": 0}, "tle": {"line1": "1 37330U 93036BKW 25349.19419683  .00001165  00000+0  24599-3 0  9995", "line2": "2 37330  74.0181 290.4011 0056929 138.2054 222.3481 14.59547518864043"}}, "geometry": {"type": "Point", "coordinates": [-77.04177369906522, -9.462909368942173]}}, {"type": "Feature", "properties": {"norad_id": 37331, "name": "COSMOS 2251 DEB", "group": "cosmos-2251-debris", "lat": 37.12739759645798, "lon": 71.35467195495674, "alt_km": 738.5890548302787, "timestamp": "2025-12-17T15:50:10.179724+00:00", "meta": {"OBJECT_NAME": "COSMOS 2251 DEB", "OBJECT_ID": "1993-036BKX", "EPOCH": "2025-12-16T21:15:09.521568", "MEAN_MOTION": 14.35033598, "ECCENTRICITY": 0.00552693, "INCLINATION": 74.0751, "RA_OF_ASC_NODE": 60.2873, "ARG_OF_PERICENTER": 73.2754, "MEAN_ANOMALY": 287.4454, "EPHEMERIS_TYPE": 0, "CLASSIFICATION_TYPE": "U", "NORAD_CAT_ID": 37331, "ELEMENT_SET_NO": 999, "REV_AT_EPOCH": 84819, "BSTAR": 0.00035206854, "MEAN_MOTION_DOT": 9.96e-06, "MEAN_MOTION_DDOT": 0}, "tle": {"line1": "1 37331U 93036BKX 25350.88552687  .00000996  00000+0  35207-3 0  9995", "line2": "2 37331  74.0751  60.2873 0055269  73.2754 287.4454 14.35033598848199"}}, "geometry": {"type": "Point", "coordinates": [71.35467195495674, 37.12739759645798]}}, {"type": "Feature", "properties": {"norad_id": 37336, "name": "COSMOS 2251 DEB", "group": "cosmos-2251-debris", "lat": -19.92400701565475, "lon": -43.72286574468632, "alt_km": 776.6082323853288, "timestamp": "2025-12-17T15:50:10.179734+00:00", "meta": {"OBJECT_NAME": "COSMOS 2251 DEB", "OBJECT_ID": "1993-036BLC", "EPOCH": "2025-12-17T07:33:13.175712", "MEAN_MOTION": 14.32760586, "ECCENTRICITY": 0.00290162, "INCLINATION": 74.0414, "RA_OF_ASC_NODE": 322.8603, "ARG_OF_PERICENTER": 39.1846, "MEAN_ANOMALY": 321.1399, "EPHEMERIS_TYPE": 0, "CLASSIFICATION_TYPE": "U", "NORAD_CAT_ID": 37336, "ELEMENT_SET_NO": 999, "REV_AT_EPOCH": 65185, "BSTAR": 6.9199726e-05, "MEAN_MOTION_DOT": 1.63e-06, "MEAN_MOTION_DDOT": 0}, "tle": {"line1": "1 37336U 93036BLC 25351.31473583  .00000163  00000+0  69200-4 0  9993", "line2": "2 37336  74.0414 322.8603 0029016  39.1846 321.1399 14.32760586651852"}}, "geometry": {"type": "Point", "coordinates": [-43.72286574468632, -19.92400701565475]}}]}